[{"OBJECT_NAME":"STARLINK-4424","OBJECT_ID":"2022-105AK","EPOCH":"2026-03-09T15:50:05.208000","MEAN_MOTION":15.012628,"ECCENTRICITY":0.00017974,"INCLINATION":97.602,"RA_OF_ASC_NODE":310.1899,"ARG_OF_PERICENTER":58.5581,"MEAN_ANOMALY":301.5819,"EPHEMERIS_TYPE":0,"CLASSIFICATION_TYPE":"U","NORAD_CAT_ID":53681,"ELEMENT_SET_NO":999,"REV_AT_EPOCH":19323,"BSTAR":2.8372042e-5,"MEAN_MOTION_DOT":3.06e-6,"MEAN_MOTION_DDOT":0},{"OBJECT_NAME":"DMSP 5D-2 F13 DEB","OBJECT_ID":"1995-015HF","EPOCH":"2026-03-08T15:33:20.356128","MEAN_MOTION":15.01113693,"ECCENTRICITY":0.00168904,"INCLINATION":98.8624,"RA_OF_ASC_NODE":112.9575,"ARG_OF_PERICENTER":188.2899,"MEAN_ANOMALY":171.8045,"EPHEMERIS_TYPE":0,"CLASSIFICATION_TYPE":"U","NORAD_CAT_ID":42289,"ELEMENT_SET_NO":999,"REV_AT_EPOCH":56056,"BSTAR":0.014483506,"MEAN_MOTION_DOT":0.00190863,"MEAN_MOTION_DDOT":0}]
